NORAD_CAT_ID,OBJECT_NAME,OBJECT_TYPE,EPOCH,MEAN_MOTION,ECCENTRICITY,INCLINATION,RA_OF_ASC_NODE,ARG_OF_PERICENTER,MEAN_ANOMALY,BSTAR,MEAN_MOTION_DOT,MEAN_MOTION_DDOT,TLE_LINE0,TLE_LINE1,TLE_LINE2,SEMIMAJOR_AXIS,PERIOD,APOGEE,PERIGEE,DECAYED
55775.0,STARLINK-5809,PAYLOAD,2023-10-12 09:16:14,14.98331126,0.0002787,69.9991,281.4205,270.1328,89.9512,1.9117e-05,1.35e-06,0.0,0 STARLINK-5809,1 55775U 23028AL  23285.38628188  .00000135  00000-0  19117-4 0  9990,2 55775  69.9991 281.4205 0002787 270.1328  89.9512 14.98331126 34822,6950.189,96.107,573.991,570.117,0.0
55775.0,STARLINK-5809,PAYLOAD,2023-10-12 17:16:55,14.98327897,0.0002909,69.9999,280.5781,269.9036,90.179,4.5705e-06,-3.8e-07,0.0,0 STARLINK-5809,1 55775U 23028AL  23285.72008379 -.00000038  00000-0  45705-5 0  9998,2 55775  69.9999 280.5781 0002909 269.9036  90.1790 14.98327897 34874,6950.199,96.107,574.086,570.043,0.0
55775.0,STARLINK-5809,PAYLOAD,2023-10-13 09:18:15,14.98330044,0.0002854,69.999,278.895,265.8926,94.1907,7.2689e-05,7.74e-06,0.0,0 STARLINK-5809,1 55775U 23028AL  23286.38768102  .00000774  00000-0  72689-4 0  9994,2 55775  69.9990 278.8950 0002854 265.8926  94.1907 14.98330044 34978,6950.193,96.107,574.041,570.074,0.0
55775.0,STARLINK-5809,PAYLOAD,2023-10-13 17:18:56,14.98320348,0.0002857,69.9991,278.0528,282.9819,77.1021,0.0002052,2.356e-05,0.0,0 STARLINK-5809,1 55775U 23028AL  23286.72148571  .00002356  00000-0  20520-3 0  9998,2 55775  69.9991 278.0528 0002857 282.9819  77.1021 14.98320348 35027,6950.223,96.108,574.073,570.102,0.0
55775.0,STARLINK-5809,PAYLOAD,2023-10-14 04:31:52,14.98331093,0.0002952,69.9988,276.8752,267.9788,92.1033,3.4316e-05,3.16e-06,0.0,0 STARLINK-5809,1 55775U 23028AL  23287.18880058  .00000316  00000-0  34316-4 0  9995,2 55775  69.9988 276.8752 0002952 267.9788  92.1033 14.98331093 35098,6950.19,96.107,574.106,570.003,0.0
55775.0,STARLINK-5809,PAYLOAD,2023-10-14 09:20:16,14.9833603,0.0002948,69.9988,276.3703,268.1124,91.9698,4.6466e-05,4.62e-06,0.0,0 STARLINK-5809,1 55775U 23028AL  23287.38907651  .00000462  00000-0  46466-4 0  9997,2 55775  69.9988 276.3703 0002948 268.1124  91.9698 14.98336030 35125,6950.174,96.107,574.088,569.99,0.0
55775.0,STARLINK-5809,PAYLOAD,2023-10-14 17:20:57,14.98313836,0.000273,69.9994,275.5282,278.9626,81.1224,0.00017195,1.958e-05,0.0,0 STARLINK-5809,1 55775U 23028AL  23287.72288902  .00001958  00000-0  17195-3 0  9993,2 55775  69.9994 275.5282 0002730 278.9626  81.1224 14.98313836 35170,6950.243,96.108,574.005,570.21,0.0
55775.0,STARLINK-5809,PAYLOAD,2023-10-15 02:57:45,14.98324158,0.0002892,69.9992,274.5183,268.1828,91.8999,-5.5704e-05,-7.57e-06,0.0,0 STARLINK-5809,1 55775U 23028AL  23288.12344730 -.00000757  00000-0 -55704-4 0  9997,2 55775  69.9992 274.5183 0002892 268.1828  91.8999 14.98324158 35234,6950.211,96.107,574.086,570.066,0.0
55775.0,STARLINK-5809,PAYLOAD,2023-10-15 09:22:18,14.98320416,0.0002823,69.9993,273.8453,267.5874,92.4962,-5.3965e-05,-7.37e-06,0.0,0 STARLINK-5809,1 55775U 23028AL  23288.39049073 -.00000737  00000-0 -53965-4 0  9993,2 55775  69.9993 273.8453 0002823 267.5874  92.4962 14.98320416 35279,6950.223,96.108,574.05,570.125,0.0
55775.0,STARLINK-5809,PAYLOAD,2023-10-15 22:11:22,14.98331802,0.0003007,69.9989,272.4989,269.5158,90.5657,5.6468e-06,-2.6e-07,0.0,0 STARLINK-5809,1 55775U 23028AL  23288.92456205 -.00000026  00000-0  56468-5 0  9993,2 55775  69.9989 272.4989 0003007 269.5158  90.5657 14.98331802 35355,6950.187,96.107,574.142,569.962,0.0
55775.0,STARLINK-5809,PAYLOAD,2023-10-16 02:59:46,14.98333506,0.0002984,69.999,271.9939,269.7604,90.3213,3.8209e-05,3.63e-06,0.0,0 STARLINK-5809,1 55775U 23028AL  23289.12483976  .00000363  00000-0  38209-4 0  9996,2 55775  69.9990 271.9939 0002984 269.7604  90.3213 14.98333506 35389,6950.182,96.107,574.121,569.973,0.0
55775.0,STARLINK-5809,PAYLOAD,2023-10-16 09:24:17,14.98338987,0.0002976,69.999,271.3205,270.2972,89.7846,5.5762e-05,5.73e-06,0.0,0 STARLINK-5809,1 55775U 23028AL  23289.39187484  .00000573  00000-0  55762-4 0  9996,2 55775  69.9990 271.3205 0002976 270.2972  89.7846 14.98338987 35422,6950.165,96.106,574.098,569.962,0.0
55775.0,STARLINK-5809,PAYLOAD,2023-10-16 22:13:22,14.9832673,0.0002308,70.0,269.9745,269.7404,90.3491,0.00014939,1.69e-05,0.0,0 STARLINK-5809,1 55775U 23028AL  23289.92596043  .00001690  00000-0  14939-3 0  9991,2 55775  70.0000 269.9745 0002308 269.7404  90.3491 14.98326730 35507,6950.203,96.107,573.672,570.464,0.0
55775.0,STARLINK-5809,PAYLOAD,2023-10-17 06:14:03,14.98324534,0.000275,70.0003,269.1328,265.0992,94.9853,0.00014807,1.674e-05,0.0,0 STARLINK-5809,1 55775U 23028AL  23290.25976078  .00001674  00000-0  14807-3 0  9995,2 55775  70.0003 269.1328 0002750 265.0992  94.9853 14.98324534 35558,6950.21,96.107,573.986,570.163,0.0
55775.0,STARLINK-5809,PAYLOAD,2023-10-18 03:03:48,14.98326972,0.0002735,70.0003,266.9464,270.0146,90.07,-0.00014967,-1.878e-05,0.0,0 STARLINK-5809,1 55775U 23028AL  23291.12764841 -.00001878  00000-0 -14967-3 0  9990,2 55775  70.0003 266.9464 0002735 270.0146  90.0700 14.98326972 35684,6950.202,96.107,573.968,570.166,0.0
55775.0,STARLINK-5809,PAYLOAD,2023-10-18 15:52:53,14.98328251,0.0002713,70.0003,265.5981,269.3548,90.73,-7.058e-05,-9.35e-06,0.0,0 STARLINK-5809,1 55775U 23028AL  23291.66172569 -.00000935  00000-0 -70580-4 0  9996,2 55775  70.0003 265.5981 0002713 269.3548  90.7300 14.98328251 35760,6950.198,96.107,573.949,570.178,0.0
55775.0,STARLINK-5809,PAYLOAD,2023-10-19 07:54:12,14.98338554,0.0003104,69.9991,263.9148,269.7597,90.3206,8.5149e-05,9.23e-06,0.0,0 STARLINK-5809,1 55775U 23028AL  23292.32931263  .00000923  00000-0  85149-4 0  9996,2 55775  69.9991 263.9148 0003104 269.7597  90.3206 14.98338554 35862,6950.166,96.106,574.189,569.874,0.0
55775.0,STARLINK-5809,PAYLOAD,2023-10-19 15:54:53,14.98329075,0.0002733,70.0009,263.0702,269.9814,90.1032,3.4738e-05,3.22e-06,0.0,0 STARLINK-5809,1 55775U 23028AL  23292.66311987  .00000322  00000-0  34738-4 0  9999,2 55775  70.0009 263.0702 0002733 269.9814  90.1032 14.98329075 35912,6950.196,96.107,573.96,570.161,0.0
55775.0,STARLINK-5809,PAYLOAD,2023-10-19 22:19:25,14.98323465,0.000314,70.0003,262.3971,268.0727,92.0073,0.00012627,1.414e-05,0.0,0 STARLINK-5809,1 55775U 23028AL  23292.93015975  .00001414  00000-0  12627-3 0  9992,2 55775  70.0003 262.3971 0003140 268.0727  92.0073 14.98323465 35959,6950.213,96.107,574.26,569.896,0.0
55775.0,STARLINK-5809,PAYLOAD,2023-10-20 07:56:14,14.98326351,0.0002897,69.9998,261.3888,268.4701,91.6126,3.7332e-05,3.52e-06,0.0,0 STARLINK-5809,1 55775U 23028AL  23293.33072163  .00000352  00000-0  37332-4 0  9990,2 55775  69.9998 261.3888 0002897 268.4701  91.6126 14.98326351 36018,6950.204,96.107,574.083,570.056,0.0
55775.0,STARLINK-5809,PAYLOAD,2023-10-20 22:21:27,14.98328775,0.0002827,69.9998,259.8739,271.6931,88.3905,-8.4586e-05,-1.102e-05,0.0,0 STARLINK-5809,1 55775U 23028AL  23293.93156481 -.00001102  00000-0 -84586-4 0  9991,2 55775  69.9998 259.8739 0002827 271.6931  88.3905 14.98328775 36109,6950.197,96.107,574.026,570.097,0.0
55775.0,STARLINK-5809,PAYLOAD,2023-10-21 03:09:51,14.98330036,0.0002677,70.0002,259.3698,266.5091,93.5762,-6.564e-05,-8.76e-06,0.0,0 STARLINK-5809,1 55775U 23028AL  23294.13184346 -.00000876  00000-0 -65640-4 0  9992,2 55775  70.0002 259.3698 0002677 266.5091  93.5762 14.98330036 36135,6950.193,96.107,573.918,570.197,0.0
55775.0,STARLINK-5809,PAYLOAD,2023-10-21 07:58:15,14.98335531,0.000282,70.0001,258.8658,268.6296,91.454,-4.9727e-05,-6.86e-06,0.0,0 STARLINK-5809,1 55775U 23028AL  23294.33211894 -.00000686  00000-0 -49727-4 0  9990,2 55775  70.0001 258.8658 0002820 268.6296  91.4540 14.98335531 36163,6950.176,96.107,574.001,570.081,0.0
55775.0,STARLINK-5809,PAYLOAD,2023-10-21 22:23:27,14.98337474,0.0002683,70.0001,257.35,274.1187,85.9665,4.4202e-05,4.35e-06,0.0,0 STARLINK-5809,1 55775U 23028AL  23294.93295366  .00000435  00000-0  44202-4 0  9995,2 55775  70.0001 257.3500 0002683 274.1187  85.9665 14.98337474 36255,6950.17,96.107,573.9,570.17,0.0
55775.0,STARLINK-5809,PAYLOAD,2023-10-22 08:00:14,14.98351662,0.0002999,70.0001,256.3399,271.3003,88.7812,-4.6719e-05,-6.51e-06,0.0,0 STARLINK-5809,1 55775U 23028AL  23295.33350410 -.00000651  00000-0 -46719-4 0  9999,2 55775  70.0001 256.3399 0002999 271.3003  88.7812 14.98351662 36313,6950.126,96.106,574.075,569.907,0.0
55775.0,STARLINK-5809,PAYLOAD,2023-10-22 14:24:48,14.98331703,0.000265,70.0006,255.6661,273.6786,86.407,-9.0528e-05,-1.173e-05,0.0,0 STARLINK-5809,1 55775U 23028AL  23295.60055761 -.00001173  00000-0 -90528-4 0  9997,2 55775  70.0006 255.6661 0002650 273.6786  86.4070 14.98331703 36358,6950.188,96.107,573.894,570.211,0.0
55775.0,STARLINK-5809,PAYLOAD,2023-10-22 22:25:29,14.98317869,0.0002683,70.0003,254.8246,268.4463,91.6388,-0.00011169,-1.425e-05,0.0,0 STARLINK-5809,1 55775U 23028AL  23295.93436808 -.00001425  00000-0 -11169-3 0  9991,2 55775  70.0003 254.8246 0002683 268.4463  91.6388 14.98317869 36408,6950.23,96.108,573.96,570.231,0.0
55775.0,STARLINK-5809,PAYLOAD,2023-10-23 03:13:53,14.98316796,0.0002693,69.9998,254.3195,265.1121,94.973,-8.0672e-05,-1.055e-05,0.0,0 STARLINK-5809,1 55775U 23028AL  23296.13464888 -.00001055  00000-0 -80672-4 0  9998,2 55775  69.9998 254.3195 0002693 265.1121  94.9730 14.98316796 36430,6950.234,96.108,573.97,570.227,0.0
55775.0,STARLINK-5809,PAYLOAD,2023-10-23 06:26:09,14.98324954,0.000253,70.0003,253.9848,256.046,104.0417,-4.1694e-05,-5.9e-06,0.0,0 STARLINK-5809,1 55775U 23028AL  23296.26816296 -.00000590  00000-0 -41694-4 0  9990,2 55775  70.0003 253.9848 0002530 256.0460 104.0417 14.98324954 36457,6950.208,96.107,573.832,570.315,0.0
55775.0,STARLINK-5809,PAYLOAD,2023-10-24 08:04:18,14.98328724,0.0002791,70.0002,251.2898,267.801,92.2829,-9.2803e-05,-1.2e-05,0.0,0 STARLINK-5809,1 55775U 23028AL  23297.33632124 -.00001200  00000-0 -92803-4 0  9992,2 55775  70.0002 251.2898 0002791 267.8010  92.2829 14.98328724 36614,6950.197,96.107,574.002,570.122,0.0
